     2              NAVIGATION DATA                         RINEX VERSION / TYPE
CCRINEXN V1.6.0 UX  CDDIS               10-OCT-25 16:53     PGM / RUN BY / DATE 
IGS BROADCAST EPHEMERIS FILE                                COMMENT             
    0.1956D-07  0.0000D+00 -0.1192D-06  0.0000D+00          ION ALPHA           
    0.1229D+06 -0.1638D+05 -0.2621D+06  0.1966D+06          ION BETA            
    0.186264514923D-08 0.532907051820D-14    61440     2388 DELTA-UTC: A0,A1,T,W
    18                                                      LEAP SECONDS        
                                                            END OF HEADER       
 5 25 10 10  0  0  0.0-0.221271999180D-03-0.795807864051D-12 0.000000000000D+00
    0.390000000000D+02-0.911250000000D+02 0.376515683389D-08 0.679387791617D+00
   -0.473111867905D-05 0.561217847280D-02 0.113323330879D-04 0.515363102722D+04
    0.432000000000D+06-0.596046447754D-07 0.409009932174D+00-0.117346644402D-06
    0.978438267561D+00 0.174750000000D+03 0.143903893183D+01-0.767781981201D-08
    0.796461747257D-10 0.100000000000D+01 0.238700000000D+04 0.000000000000D+00
    0.200000000000D+01 0.000000000000D+00-0.107102096081D-07 0.390000000000D+02
    0.427398000000D+06 0.400000000000D+01 0.000000000000D+00 0.000000000000D+00
20 25 10 10  0  0  0.0 0.362483784556D-03-0.113686837722D-12 0.000000000000D+00
    0.500000000000D+01-0.957187500000D+02 0.423017620382D-08-0.141535033093D+01
   -0.503472983837D-05 0.357712106779D-02 0.104550272226D-04 0.515359845543D+04
    0.432000000000D+06 0.149011611938D-06 0.271551917033D+00 0.242143869400D-07
    0.960336155821D+00 0.177718750000D+03-0.219680029494D+01-0.786032741419D-08
   -0.357157734196D-11 0.100000000000D+01 0.238700000000D+04 0.000000000000D+00
    0.200000000000D+01 0.000000000000D+00-0.838190317154D-08 0.500000000000D+01
    0.424818000000D+06 0.400000000000D+01 0.000000000000D+00 0.000000000000D+00
30 25 10 10  0  0  0.0-0.108876265585D-04 0.112549969344D-10 0.000000000000D+00
    0.280000000000D+02-0.350625000000D+02 0.543344061033D-08-0.261205425699D+01
   -0.206008553505D-05 0.768812373280D-02 0.690482556820D-05 0.515360170364D+04
    0.432000000000D+06 0.115483999252D-06 0.254268521252D+01-0.141561031342D-06
    0.935970583732D+00 0.234593750000D+03-0.235453898334D+01-0.834106172441D-08
   -0.299655338990D-09 0.100000000000D+01 0.238700000000D+04 0.000000000000D+00
    0.200000000000D+01 0.000000000000D+00 0.419095158577D-08 0.280000000000D+02
    0.424818000000D+06 0.400000000000D+01 0.000000000000D+00 0.000000000000D+00
 5 25 10 10  2  0  0.0-0.221278052777D-03-0.795807864051D-12 0.000000000000D+00
    0.400000000000D+02-0.917187500000D+02 0.378015745873D-08 0.172939155519D+01
   -0.496953725815D-05 0.561193528119D-02 0.106282532215D-04 0.515363282013D+04
    0.439200000000D+06 0.502914190292D-07 0.408954658740D+00-0.115483999252D-06
    0.978438876135D+00 0.186250000000D+03 0.143923710602D+01-0.764924719328D-08
    0.632169189527D-10 0.100000000000D+01 0.238700000000D+04 0.000000000000D+00
    0.200000000000D+01 0.000000000000D+00-0.107102096081D-07 0.400000000000D+02
    0.432018000000D+06 0.400000000000D+01 0.000000000000D+00 0.000000000000D+00
20 25 10 10  2  0  0.0 0.362482853234D-03-0.113686837722D-12 0.000000000000D+00
    0.600000000000D+01-0.943750000000D+02 0.420481800469D-08-0.364573981307D+00
   -0.494718551636D-05 0.357867253479D-02 0.961683690548D-05 0.515360320282D+04
    0.439200000000D+06 0.223517417908D-07 0.271494854450D+00 0.782310962677D-07
    0.960335541396D+00 0.195750000000D+03-0.219735340525D+01-0.797961809741D-08
   -0.153577825704D-10 0.100000000000D+01 0.238700000000D+04 0.000000000000D+00
    0.200000000000D+01 0.000000000000D+00-0.838190317154D-08 0.600000000000D+01
    0.432018000000D+06 0.400000000000D+01 0.000000000000D+00 0.000000000000D+00
30 25 10 10  2  0  0.0-0.108066014946D-04 0.112549969344D-10 0.000000000000D+00
    0.330000000000D+02-0.297187500000D+02 0.537450958418D-08-0.156196128614D+01
   -0.160187482834D-05 0.768864131533D-02 0.621005892754D-05 0.515359947014D+04
    0.439200000000D+06 0.139698386192D-06 0.254262484667D+01-0.204890966415D-07
    0.935968794583D+00 0.241218750000D+03-0.235439993882D+01-0.834999066777D-08
   -0.236081262304D-09 0.100000000000D+01 0.238700000000D+04 0.000000000000D+00
    0.200000000000D+01 0.000000000000D+00 0.419095158577D-08 0.330000000000D+02
    0.432018000000D+06 0.400000000000D+01 0.000000000000D+00 0.000000000000D+00
 5 25 10 10  4  0  0.0-0.221283640712D-03-0.795807864051D-12 0.000000000000D+00
    0.490000000000D+02-0.970000000000D+02 0.380765860426D-08 0.277956702291D+01
   -0.499561429024D-05 0.561251596082D-02 0.101719051600D-04 0.515363233948D+04
    0.446400000000D+06 0.726431608200D-07 0.408900230873D+00-0.745058059692D-08
    0.978439538837D+00 0.192625000000D+03 0.143926159381D+01-0.756281502160D-08
    0.275011455331D-10 0.100000000000D+01 0.238700000000D+04 0.000000000000D+00
    0.200000000000D+01 0.000000000000D+00-0.107102096081D-07 0.490000000000D+02
    0.439218000000D+06 0.400000000000D+01 0.000000000000D+00 0.000000000000D+00
30 25 10 10  4  0  0.0-0.107251107693D-04 0.112549969344D-10 0.000000000000D+00
    0.340000000000D+02-0.265312500000D+02 0.539272462863D-08-0.511787929404D+00
   -0.125728547573D-05 0.768852012698D-02 0.658817589283D-05 0.515359859657D+04
    0.446400000000D+06 0.614672899246D-07 0.254256445448D+01 0.113621354103D-06
    0.935966294456D+00 0.239406250000D+03-0.235434052826D+01-0.849892544293D-08
   -0.276797244002D-09 0.100000000000D+01 0.238700000000D+04 0.000000000000D+00
    0.200000000000D+01 0.000000000000D+00 0.419095158577D-08 0.340000000000D+02
    0.439218000000D+06 0.400000000000D+01 0.000000000000D+00 0.000000000000D+00
20 25 10 10  6  0  0.0 0.362481456250D-03-0.113686837722D-12 0.000000000000D+00
    0.800000000000D+01-0.133968750000D+03 0.418731727572D-08 0.173494143482D+01
   -0.698305666447D-05 0.357752526179D-02 0.951252877712D-05 0.515360630608D+04
    0.453600000000D+06-0.558793544769D-07 0.271380910687D+00-0.372529029846D-07
    0.960334441281D+00 0.199968750000D+03-0.219642317807D+01-0.792711591048D-08
   -0.120719314158D-09 0.100000000000D+01 0.238700000000D+04 0.000000000000D+00
    0.200000000000D+01 0.000000000000D+00-0.838190317154D-08 0.800000000000D+01
    0.453408000000D+06 0.400000000000D+01 0.000000000000D+00 0.000000000000D+00
30 25 10 10  6  0  0.0-0.106440857053D-04 0.112549969344D-10 0.000000000000D+00
    0.470000000000D+02-0.273125000000D+02 0.533486507569D-08 0.538446226207D+00
   -0.130757689476D-05 0.768841768149D-02 0.663101673126D-05 0.515359840584D+04
    0.453600000000D+06-0.132247805595D-06 0.254250421005D+01 0.156462192535D-06
    0.935964296110D+00 0.239562500000D+03-0.235434212869D+01-0.839999275056D-08
   -0.392159192147D-09 0.100000000000D+01 0.238700000000D+04 0.000000000000D+00
    0.200000000000D+01 0.000000000000D+00 0.419095158577D-08 0.470000000000D+02
    0.446418000000D+06 0.400000000000D+01 0.000000000000D+00 0.000000000000D+00
 5 25 10 10  8  0  0.0-0.221294816583D-03-0.795807864051D-12 0.000000000000D+00
    0.510000000000D+02-0.118093750000D+03 0.384694595503D-08-0.140293243274D+01
   -0.606290996075D-05 0.561128277332D-02 0.103581696749D-04 0.515363535118D+04
    0.460800000000D+06 0.186264514923D-08 0.408791227384D+00 0.154599547386D-06
    0.978439456914D+00 0.188406250000D+03 0.143897645791D+01-0.769032033271D-08
    0.357157734196D-11 0.100000000000D+01 0.238700000000D+04 0.000000000000D+00
    0.200000000000D+01 0.000000000000D+00-0.107102096081D-07 0.510000000000D+02
    0.457338000000D+06 0.400000000000D+01 0.000000000000D+00 0.000000000000D+00
20 25 10 10  8  0  0.0 0.362480524927D-03-0.113686837722D-12 0.000000000000D+00
    0.900000000000D+01-0.140968750000D+03 0.431803700643D-08 0.278535775884D+01
   -0.725686550140D-05 0.357861013617D-02 0.950507819653D-05 0.515360401916D+04
    0.460800000000D+06-0.204890966415D-07 0.271323924176D+00-0.689178705216D-07
    0.960333696656D+00 0.191656250000D+03-0.219661913887D+01-0.790497213096D-08
   -0.113219001740D-09 0.100000000000D+01 0.238700000000D+04 0.000000000000D+00
    0.200000000000D+01 0.000000000000D+00-0.838190317154D-08 0.900000000000D+01
    0.454608000000D+06 0.400000000000D+01 0.000000000000D+00 0.000000000000D+00
30 25 10 10  9 59 44.0-0.104820355773D-04 0.112549969344D-10 0.000000000000D+00
    0.290000000000D+02-0.294687500000D+02 0.533879381076D-08 0.263651092499D+01
   -0.168196856976D-05 0.768837425858D-02 0.648386776447D-05 0.515359952354D+04
    0.467984000000D+06-0.353902578354D-07 0.254238407961D+01-0.987201929092D-07
    0.935958561471D+00 0.239968750000D+03-0.235427547814D+01-0.823641450830D-08
   -0.428589281035D-09 0.100000000000D+01 0.238700000000D+04 0.000000000000D+00
    0.200000000000D+01 0.000000000000D+00 0.419095158577D-08 0.290000000000D+02
    0.467707000000D+06 0.400000000000D+01 0.000000000000D+00 0.000000000000D+00
 5 25 10 10 10  0  0.0-0.221300870180D-03-0.795807864051D-12 0.000000000000D+00
    0.550000000000D+02-0.115625000000D+03 0.394837875154D-08-0.352796869028D+00
   -0.588223338127D-05 0.561157276388D-02 0.106412917376D-04 0.515363516426D+04
    0.468000000000D+06-0.447034835815D-07 0.408734777764D+00-0.558793544769D-08
    0.978439111665D+00 0.182031250000D+03 0.143904172893D+01-0.783639784600D-08
    0.621454457501D-10 0.100000000000D+01 0.238700000000D+04 0.000000000000D+00
    0.200000000000D+01 0.000000000000D+00-0.107102096081D-07 0.550000000000D+02
    0.460818000000D+06 0.400000000000D+01 0.000000000000D+00 0.000000000000D+00
